CUTE-1 (CO-55)          
1 27844U 03031E   26063.01394075  .00000483  00000+0  22828-3 0  9997
2 27844  98.6778  72.8832 0010497 127.2783 232.9354 14.24260748176700
CUBESAT XI-IV (CO-57)   
1 27848U 03031J   26062.94998598  .00000409  00000+0  19861-3 0  9993
2 27848  98.6808  72.6171 0010137 144.0340 216.1522 14.23556668176405
CUBESAT XI-V            
1 28895U 05043F   26062.87117244  .00003015  00000+0  48470-3 0  9998
2 28895  98.2817 216.3857 0014408 175.6769 184.4564 14.72288602 86252
CUTE-1.7+APD II (CO-65) 
1 32785U 08021C   26063.14097273  .00010389  00000+0  67316-3 0  9992
2 32785  97.8200  42.5131 0010258  36.1381 324.0538 15.08277099969352
CANX-2                  
1 32790U 08021H   26062.98836551  .00007236  00000+0  51730-3 0  9999
2 32790  97.8558  40.8444 0012162  47.7129 312.5126 15.04722557968989
SEEDS II (CO-66)        
1 32791U 08021J   26062.50727596  .00024010  00000+0  86001-3 0  9994
2 32791  97.7506  55.6816 0002563  18.3674 341.7657 15.28751446971120
SWISSCUBE               
1 35932U 09051B   26063.14010608  .00001765  00000+0  35991-3 0  9992
2 35932  98.4105 329.1845 0006697 169.2734 190.8611 14.62241691873801
BEESAT-1                
1 35933U 09051C   26063.16455565  .00001483  00000+0  30888-3 0  9997
2 35933  98.4035 329.0606 0004926 180.2881 179.8317 14.61518154873841
ITUPSAT1                
1 35935U 09051E   26062.72139682  .00001275  00000+0  27434-3 0  9991
2 35935  98.4123 327.9111 0006873 197.5625 162.5338 14.60252771873345
TISAT 1                 
1 36799U 10035E   26063.05771657  .00032378  00000+0  12098-2 0  9992
2 36799  98.0650   0.6918 0000406 171.8670 188.2574 15.27297610851636
AEROCUBE 4.5A           
1 38767U 12048K   26063.15153743  .00121030  00000+0  13643-2 0  9997
2 38767  64.6382  39.3234 0041659 213.8990 145.9492 15.60829268356121
STRAND-1                
1 39090U 13009E   26063.06396808  .00000536  00000+0  19483-3 0  9992
2 39090  98.3881 245.8956 0008669 178.1921 181.9299 14.37089198681966
BRITE-AUSTRIA           
1 39091U 13009F   26063.03223763  .00000343  00000+0  13126-3 0  9993
2 39091  98.3950 245.0814 0010016 187.9558 172.1471 14.36492269681951
NEE-01 PEGASO           
1 39151U 13018B   26062.80265588  .00005959  00000+0  57736-3 0  9998
2 39151  98.1038 203.6165 0013598 147.4132 212.7928 14.93036638694970
POPACS 2                
1 39269U 13055E   26062.52292554  .00028066  00000+0  49115-3 0  9997
2 39269  80.9890 264.8559 0431926 172.5313 188.2631 14.87421156647488
POPACS 3                
1 39270U 13055F   26062.76175911  .00019038  00000+0  45830-3 0  9991
2 39270  81.0063 343.3222 0561427  30.7059 332.5744 14.53745697623223
ZACUBE-1 (TSHEPISOSAT)  
1 39417U 13066B   26063.12768713  .00007552  00000+0  59707-3 0  9991
2 39417  97.8183  24.9240 0041699 238.7498 120.9637 15.00255417664973
