[{"OBJECT_NAME":"CUTE-1 (CO-55)","OBJECT_ID":"2003-031E","EPOCH":"2026-03-04T00:20:04.480800","MEAN_MOTION":14.24260748,"ECCENTRICITY":0.0010497,"INCLINATION":98.6778,"RA_OF_ASC_NODE":72.8832,"ARG_OF_PERICENTER":127.2783,"MEAN_ANOMALY":232.9354,"EPHEMERIS_TYPE":0,"CLASSIFICATION_TYPE":"U","NORAD_CAT_ID":27844,"ELEMENT_SET_NO":999,"REV_AT_EPOCH":17670,"BSTAR":0.00022828,"MEAN_MOTION_DOT":4.83e-6,"MEAN_MOTION_DDOT":0},{"OBJECT_NAME":"CUBESAT XI-IV (CO-57)","OBJECT_ID":"2003-031J","EPOCH":"2026-03-03T22:47:58.788672","MEAN_MOTION":14.23556668,"ECCENTRICITY":0.0010137,"INCLINATION":98.6808,"RA_OF_ASC_NODE":72.6171,"ARG_OF_PERICENTER":144.034,"MEAN_ANOMALY":216.1522,"EPHEMERIS_TYPE":0,"CLASSIFICATION_TYPE":"U","NORAD_CAT_ID":27848,"ELEMENT_SET_NO":999,"REV_AT_EPOCH":17640,"BSTAR":0.00019861,"MEAN_MOTION_DOT":4.09e-6,"MEAN_MOTION_DDOT":0},{"OBJECT_NAME":"CUBESAT XI-V","OBJECT_ID":"2005-043F","EPOCH":"2026-03-03T20:54:29.298816","MEAN_MOTION":14.72288602,"ECCENTRICITY":0.0014408,"INCLINATION":98.2817,"RA_OF_ASC_NODE":216.3857,"ARG_OF_PERICENTER":175.6769,"MEAN_ANOMALY":184.4564,"EPHEMERIS_TYPE":0,"CLASSIFICATION_TYPE":"U","NORAD_CAT_ID":28895,"ELEMENT_SET_NO":999,"REV_AT_EPOCH":8625,"BSTAR":0.0004847,"MEAN_MOTION_DOT":3.015e-5,"MEAN_MOTION_DDOT":0},{"OBJECT_NAME":"CUTE-1.7+APD II (CO-65)","OBJECT_ID":"2008-021C","EPOCH":"2026-03-04T03:23:00.043872","MEAN_MOTION":15.08277099,"ECCENTRICITY":0.0010258,"INCLINATION":97.82,"RA_OF_ASC_NODE":42.5131,"ARG_OF_PERICENTER":36.1381,"MEAN_ANOMALY":324.0538,"EPHEMERIS_TYPE":0,"CLASSIFICATION_TYPE":"U","NORAD_CAT_ID":32785,"ELEMENT_SET_NO":999,"REV_AT_EPOCH":96935,"BSTAR":0.00067316,"MEAN_MOTION_DOT":0.00010389,"MEAN_MOTION_DDOT":0},{"OBJECT_NAME":"CANX-2","OBJECT_ID":"2008-021H","EPOCH":"2026-03-03T23:43:14.780064","MEAN_MOTION":15.04722557,"ECCENTRICITY":0.0012162,"INCLINATION":97.8558,"RA_OF_ASC_NODE":40.8444,"ARG_OF_PERICENTER":47.7129,"MEAN_ANOMALY":312.5126,"EPHEMERIS_TYPE":0,"CLASSIFICATION_TYPE":"U","NORAD_CAT_ID":32790,"ELEMENT_SET_NO":999,"REV_AT_EPOCH":96898,"BSTAR":0.0005173,"MEAN_MOTION_DOT":7.236e-5,"MEAN_MOTION_DDOT":0},{"OBJECT_NAME":"SEEDS II (CO-66)","OBJECT_ID":"2008-021J","EPOCH":"2026-03-03T12:10:28.642944","MEAN_MOTION":15.28751446,"ECCENTRICITY":0.00025637,"INCLINATION":97.7506,"RA_OF_ASC_NODE":55.6816,"ARG_OF_PERICENTER":18.3674,"MEAN_ANOMALY":341.7657,"EPHEMERIS_TYPE":0,"CLASSIFICATION_TYPE":"U","NORAD_CAT_ID":32791,"ELEMENT_SET_NO":999,"REV_AT_EPOCH":97112,"BSTAR":0.00086000582,"MEAN_MOTION_DOT":0.0002401,"MEAN_MOTION_DDOT":0},{"OBJECT_NAME":"SWISSCUBE","OBJECT_ID":"2009-051B","EPOCH":"2026-03-04T03:21:45.165312","MEAN_MOTION":14.62241691,"ECCENTRICITY":0.0006697,"INCLINATION":98.4105,"RA_OF_ASC_NODE":329.1845,"ARG_OF_PERICENTER":169.2734,"MEAN_ANOMALY":190.8611,"EPHEMERIS_TYPE":0,"CLASSIFICATION_TYPE":"U","NORAD_CAT_ID":35932,"ELEMENT_SET_NO":999,"REV_AT_EPOCH":87380,"BSTAR":0.00035991,"MEAN_MOTION_DOT":1.765e-5,"MEAN_MOTION_DDOT":0},{"OBJECT_NAME":"BEESAT-1","OBJECT_ID":"2009-051C","EPOCH":"2026-03-04T03:56:57.608160","MEAN_MOTION":14.61518154,"ECCENTRICITY":0.0004926,"INCLINATION":98.4035,"RA_OF_ASC_NODE":329.0606,"ARG_OF_PERICENTER":180.2881,"MEAN_ANOMALY":179.8317,"EPHEMERIS_TYPE":0,"CLASSIFICATION_TYPE":"U","NORAD_CAT_ID":35933,"ELEMENT_SET_NO":999,"REV_AT_EPOCH":87384,"BSTAR":0.00030888,"MEAN_MOTION_DOT":1.483e-5,"MEAN_MOTION_DDOT":0},{"OBJECT_NAME":"ITUPSAT1","OBJECT_ID":"2009-051E","EPOCH":"2026-03-03T17:18:48.685248","MEAN_MOTION":14.60252771,"ECCENTRICITY":0.00068732,"INCLINATION":98.4123,"RA_OF_ASC_NODE":327.9111,"ARG_OF_PERICENTER":197.5625,"MEAN_ANOMALY":162.5338,"EPHEMERIS_TYPE":0,"CLASSIFICATION_TYPE":"U","NORAD_CAT_ID":35935,"ELEMENT_SET_NO":999,"REV_AT_EPOCH":87334,"BSTAR":0.00027433628,"MEAN_MOTION_DOT":1.275e-5,"MEAN_MOTION_DDOT":0},{"OBJECT_NAME":"TISAT 1","OBJECT_ID":"2010-035E","EPOCH":"2026-03-04T01:23:06.711648","MEAN_MOTION":15.2729761,"ECCENTRICITY":4.06e-5,"INCLINATION":98.065,"RA_OF_ASC_NODE":0.6918,"ARG_OF_PERICENTER":171.867,"MEAN_ANOMALY":188.2574,"EPHEMERIS_TYPE":0,"CLASSIFICATION_TYPE":"U","NORAD_CAT_ID":36799,"ELEMENT_SET_NO":999,"REV_AT_EPOCH":85163,"BSTAR":0.0012098,"MEAN_MOTION_DOT":0.00032378,"MEAN_MOTION_DDOT":0},{"OBJECT_NAME":"AEROCUBE 4.5A","OBJECT_ID":"2012-048K","EPOCH":"2026-03-04T03:38:12.833952","MEAN_MOTION":15.60829268,"ECCENTRICITY":0.0041659,"INCLINATION":64.6382,"RA_OF_ASC_NODE":39.3234,"ARG_OF_PERICENTER":213.899,"MEAN_ANOMALY":145.9492,"EPHEMERIS_TYPE":0,"CLASSIFICATION_TYPE":"U","NORAD_CAT_ID":38767,"ELEMENT_SET_NO":999,"REV_AT_EPOCH":35612,"BSTAR":0.0013643,"MEAN_MOTION_DOT":0.0012103,"MEAN_MOTION_DDOT":0},{"OBJECT_NAME":"STRAND-1","OBJECT_ID":"2013-009E","EPOCH":"2026-03-04T01:32:06.842112","MEAN_MOTION":14.37089198,"ECCENTRICITY":0.0008669,"INCLINATION":98.3881,"RA_OF_ASC_NODE":245.8956,"ARG_OF_PERICENTER":178.1921,"MEAN_ANOMALY":181.9299,"EPHEMERIS_TYPE":0,"CLASSIFICATION_TYPE":"U","NORAD_CAT_ID":39090,"ELEMENT_SET_NO":999,"REV_AT_EPOCH":68196,"BSTAR":0.00019483,"MEAN_MOTION_DOT":5.36e-6,"MEAN_MOTION_DDOT":0},{"OBJECT_NAME":"BRITE-AUSTRIA","OBJECT_ID":"2013-009F","EPOCH":"2026-03-04T00:46:25.331232","MEAN_MOTION":14.36492269,"ECCENTRICITY":0.0010016,"INCLINATION":98.395,"RA_OF_ASC_NODE":245.0814,"ARG_OF_PERICENTER":187.9558,"MEAN_ANOMALY":172.1471,"EPHEMERIS_TYPE":0,"CLASSIFICATION_TYPE":"U","NORAD_CAT_ID":39091,"ELEMENT_SET_NO":999,"REV_AT_EPOCH":68195,"BSTAR":0.00013126,"MEAN_MOTION_DOT":3.43e-6,"MEAN_MOTION_DDOT":0},{"OBJECT_NAME":"NEE-01 PEGASO","OBJECT_ID":"2013-018B","EPOCH":"2026-03-03T19:15:49.468032","MEAN_MOTION":14.93036638,"ECCENTRICITY":0.0013598,"INCLINATION":98.1038,"RA_OF_ASC_NODE":203.6165,"ARG_OF_PERICENTER":147.4132,"MEAN_ANOMALY":212.7928,"EPHEMERIS_TYPE":0,"CLASSIFICATION_TYPE":"U","NORAD_CAT_ID":39151,"ELEMENT_SET_NO":999,"REV_AT_EPOCH":69497,"BSTAR":0.00057736,"MEAN_MOTION_DOT":5.959e-5,"MEAN_MOTION_DDOT":0},{"OBJECT_NAME":"POPACS 2","OBJECT_ID":"2013-055E","EPOCH":"2026-03-03T12:33:00.766656","MEAN_MOTION":14.87421156,"ECCENTRICITY":0.04319263,"INCLINATION":80.989,"RA_OF_ASC_NODE":264.8559,"ARG_OF_PERICENTER":172.5313,"MEAN_ANOMALY":188.2631,"EPHEMERIS_TYPE":0,"CLASSIFICATION_TYPE":"U","NORAD_CAT_ID":39269,"ELEMENT_SET_NO":999,"REV_AT_EPOCH":64748,"BSTAR":0.000491155,"MEAN_MOTION_DOT":0.00028066,"MEAN_MOTION_DDOT":0},{"OBJECT_NAME":"POPACS 3","OBJECT_ID":"2013-055F","EPOCH":"2026-03-03T18:16:55.987104","MEAN_MOTION":14.53745697,"ECCENTRICITY":0.05614272,"INCLINATION":81.0063,"RA_OF_ASC_NODE":343.3222,"ARG_OF_PERICENTER":30.7059,"MEAN_ANOMALY":332.5744,"EPHEMERIS_TYPE":0,"CLASSIFICATION_TYPE":"U","NORAD_CAT_ID":39270,"ELEMENT_SET_NO":999,"REV_AT_EPOCH":62322,"BSTAR":0.00045829762,"MEAN_MOTION_DOT":0.00019038,"MEAN_MOTION_DDOT":0},{"OBJECT_NAME":"ZACUBE-1 (TSHEPISOSAT)","OBJECT_ID":"2013-066B","EPOCH":"2026-03-04T03:03:52.168032","MEAN_MOTION":15.00255417,"ECCENTRICITY":0.0041699,"INCLINATION":97.8183,"RA_OF_ASC_NODE":24.924,"ARG_OF_PERICENTER":238.7498,"MEAN_ANOMALY":120.9637,"EPHEMERIS_TYPE":0,"CLASSIFICATION_TYPE":"U","NORAD_CAT_ID":39417,"ELEMENT_SET_NO":999,"REV_AT_EPOCH":66497,"BSTAR":0.00059707,"MEAN_MOTION_DOT":7.552e-5,"MEAN_MOTION_DDOT":0}]
